[{"OBJECT_NAME":"SHIYAN-28B 01","OBJECT_ID":"2025-145A","EPOCH":"2026-03-08T20:29:47.684832","MEAN_MOTION":14.29356521,"ECCENTRICITY":0.00033669,"INCLINATION":10.9981,"RA_OF_ASC_NODE":260.401,"ARG_OF_PERICENTER":306.4747,"MEAN_ANOMALY":53.517,"EPHEMERIS_TYPE":0,"CLASSIFICATION_TYPE":"U","NORAD_CAT_ID":64753,"ELEMENT_SET_NO":999,"REV_AT_EPOCH":3553,"BSTAR":0.00013091269,"MEAN_MOTION_DOT":7.71e-6,"MEAN_MOTION_DDOT":0},{"OBJECT_NAME":"CZ-6A DEB","OBJECT_ID":"2022-151AL","EPOCH":"2026-03-09T23:29:54.497472","MEAN_MOTION":14.24199782,"ECCENTRICITY":0.00408503,"INCLINATION":98.7646,"RA_OF_ASC_NODE":94.189,"ARG_OF_PERICENTER":56.6385,"MEAN_ANOMALY":303.8694,"EPHEMERIS_TYPE":0,"CLASSIFICATION_TYPE":"U","NORAD_CAT_ID":54293,"ELEMENT_SET_NO":999,"REV_AT_EPOCH":17210,"BSTAR":0.00027818763,"MEAN_MOTION_DOT":6.02e-6,"MEAN_MOTION_DDOT":0}]
